NORAD_CAT_ID,OBJECT_NAME,OBJECT_TYPE,EPOCH,MEAN_MOTION,ECCENTRICITY,INCLINATION,RA_OF_ASC_NODE,ARG_OF_PERICENTER,MEAN_ANOMALY,BSTAR,MEAN_MOTION_DOT,MEAN_MOTION_DDOT,TLE_LINE0,TLE_LINE1,TLE_LINE2,SEMIMAJOR_AXIS,PERIOD,APOGEE,PERIGEE,DECAYED
52988.0,STARLINK-4291,PAYLOAD,2023-02-17 18:16:17,15.08825402,0.0001211,53.2152,63.7249,93.7454,266.3676,-0.00010804,-2.006e-05,0.0,0 STARLINK-4291,1 52988U 22076C   23048.76131045 -.00002006  00000-0 -10804-3 0  9999,2 52988  53.2152  63.7249 0001211  93.7454 266.3676 15.08825402 34378,6917.925,95.438,540.628,538.952,0.0
52988.0,STARLINK-4291,PAYLOAD,2023-02-18 10:10:08,15.08832155,9.54e-05,53.2145,60.7509,100.5033,259.6066,0.00039367,5.982e-05,0.0,0 STARLINK-4291,1 52988U 22076C   23049.42371508  .00005982  00000-0  39367-3 0  9992,2 52988  53.2145  60.7509 0000954 100.5033 259.6066 15.08832155 34943,6917.904,95.438,540.429,539.109,0.0
52988.0,STARLINK-4291,PAYLOAD,2023-02-19 10:00:55,15.08872051,9.3e-05,53.2145,56.2899,92.2028,267.907,0.0009745,0.00015269,0.0,0 STARLINK-4291,1 52988U 22076C   23050.41730412  .00015269  00000-0  97450-3 0  9992,2 52988  53.2145  56.2899 0000930  92.2028 267.9070 15.08872051 35093,6917.782,95.436,540.291,539.004,0.0
52988.0,STARLINK-4291,PAYLOAD,2023-02-20 03:30:09,15.08857341,0.0001422,53.2143,53.018,102.0691,258.046,0.00039603,6.023e-05,0.0,0 STARLINK-4291,1 52988U 22076C   23051.14594246  .00006023  00000-0  39603-3 0  9990,2 52988  53.2143  53.0180 0001422 102.0691 258.0460 15.08857341 35204,6917.827,95.436,540.676,538.709,0.0
52988.0,STARLINK-4291,PAYLOAD,2023-02-20 06:40:55,15.08855759,0.0001085,53.2148,52.4237,97.3052,262.8063,0.00040719,6.201e-05,0.0,0 STARLINK-4291,1 52988U 22076C   23051.27842196  .00006201  00000-0  40719-3 0  9992,2 52988  53.2148  52.4237 0001085  97.3052 262.8063 15.08855759 34759,6917.832,95.437,540.448,538.947,0.0
52988.0,STARLINK-4291,PAYLOAD,2023-02-21 03:20:56,15.08837382,0.0001233,53.2143,48.5573,100.4611,259.652,4.3675e-05,4.07e-06,0.0,0 STARLINK-4291,1 52988U 22076C   23052.13954651  .00000407  00000-0  43675-4 0  9995,2 52988  53.2143  48.5573 0001233 100.4611 259.6520 15.08837382 35356,6917.888,95.438,540.606,538.9,0.0
52988.0,STARLINK-4291,PAYLOAD,2023-02-21 08:07:06,15.08842802,0.0001535,53.2161,47.6668,96.6366,263.4801,0.00012603,1.718e-05,0.0,0 STARLINK-4291,1 52988U 22076C   23052.33826632  .00001718  00000-0  12603-3 0  9996,2 52988  53.2161  47.6668 0001535  96.6366 263.4801 15.08842802 34918,6917.872,95.437,540.799,538.675,0.0
52988.0,STARLINK-4291,PAYLOAD,2023-02-21 16:04:01,15.08842422,0.0001256,53.2166,46.1801,95.6764,264.4372,-4.49e-05,-1.002e-05,0.0,0 STARLINK-4291,1 52988U 22076C   23052.66946483 -.00001002  00000-0 -44900-4 0  9993,2 52988  53.2166  46.1801 0001256  95.6764 264.4372 15.08842422 34964,6917.873,95.437,540.607,538.869,0.0
52988.0,STARLINK-4291,PAYLOAD,2023-02-22 09:33:15,15.0885653,0.000135,53.2162,42.9084,98.3191,261.7954,0.00038475,5.843e-05,0.0,0 STARLINK-4291,1 52988U 22076C   23053.39810008  .00005843  00000-0  38475-3 0  9991,2 52988  53.2162  42.9084 0001350  98.3191 261.7954 15.08856530 35542,6917.83,95.437,540.629,538.761,0.0
52988.0,STARLINK-4291,PAYLOAD,2023-02-22 15:54:48,15.08843713,0.0001383,53.2162,41.7163,82.1341,277.9808,0.00021237,3.094e-05,0.0,0 STARLINK-4291,1 52988U 22076C   23053.66306473  .00003094  00000-0  21237-3 0  9991,2 52988  53.2162  41.7163 0001383  82.1341 277.9808 15.08843713 35581,6917.869,95.437,540.691,538.777,0.0
52988.0,STARLINK-4291,PAYLOAD,2023-02-23 07:48:40,15.08839544,0.0001294,53.2171,38.7474,105.8405,254.273,6.2424e-05,7.06e-06,0.0,0 STARLINK-4291,1 52988U 22076C   23054.32546730  .00000706  00000-0  62424-4 0  9998,2 52988  53.2171  38.7474 0001294 105.8405 254.2730 15.08839544 35687,6917.882,95.438,540.642,538.852,0.0
52988.0,STARLINK-4291,PAYLOAD,2023-02-23 22:07:08,15.08846092,0.0001073,53.216,36.0694,90.025,270.0865,0.00041776,6.368e-05,0.0,0 STARLINK-4291,1 52988U 22076C   23054.92162706  .00006368  00000-0  41776-3 0  9997,2 52988  53.2160  36.0694 0001073  90.0250 270.0865 15.08846092 35308,6917.862,95.437,540.469,538.984,0.0
52988.0,STARLINK-4291,PAYLOAD,2023-02-24 07:39:27,15.08858095,0.000105,53.2161,34.285,88.8762,271.2351,0.00085156,0.00013297,0.0,0 STARLINK-4291,1 52988U 22076C   23055.31906469  .00013297  00000-0  85156-3 0  9992,2 52988  53.2161  34.2850 0001050  88.8762 271.2351 15.08858095 35838,6917.825,95.436,540.416,538.964,0.0
52988.0,STARLINK-4291,PAYLOAD,2023-02-24 15:36:22,15.08847329,0.0001051,53.2165,32.7976,94.8233,265.2879,0.00032754,4.93e-05,0.0,0 STARLINK-4291,1 52988U 22076C   23055.65026576  .00004930  00000-0  32754-3 0  9991,2 52988  53.2165  32.7976 0001051  94.8233 265.2879 15.08847329 35886,6917.858,95.437,540.45,538.996,0.0
52988.0,STARLINK-4291,PAYLOAD,2023-02-24 21:57:55,15.08841686,0.000133,53.2165,31.6114,90.7209,269.3936,3.9316e-05,3.38e-06,0.0,0 STARLINK-4291,1 52988U 22076C   23055.91522784  .00000338  00000-0  39316-4 0  9992,2 52988  53.2165  31.6114 0001330  90.7209 269.3936 15.08841686 35458,6917.875,95.437,540.66,538.82,0.0
52988.0,STARLINK-4291,PAYLOAD,2023-02-25 04:19:28,15.08841483,0.0001491,53.2168,30.4202,91.3824,268.7339,0.00022916,3.361e-05,0.0,0 STARLINK-4291,1 52988U 22076C   23056.18018903  .00003361  00000-0  22916-3 0  9991,2 52988  53.2168  30.4202 0001491  91.3824 268.7339 15.08841483 35965,6917.876,95.437,540.772,538.709,0.0
52988.0,STARLINK-4291,PAYLOAD,2023-02-25 07:30:14,15.08836641,0.0001053,53.2154,29.8249,100.4638,259.6473,0.00019888,2.879e-05,0.0,0 STARLINK-4291,1 52988U 22076C   23056.31266976  .00002879  00000-0  19888-3 0  9998,2 52988  53.2154  29.8249 0001053 100.4638 259.6473 15.08836641 35511,6917.891,95.438,540.484,539.027,0.0
52988.0,STARLINK-4291,PAYLOAD,2023-02-25 15:27:10,15.08838851,0.0001024,53.216,28.3377,97.8653,262.2455,0.00021904,3.2e-05,0.0,0 STARLINK-4291,1 52988U 22076C   23056.64387114  .00003200  00000-0  21904-3 0  9993,2 52988  53.2160  28.3377 0001024  97.8653 262.2455 15.08838851 35568,6917.884,95.438,540.457,539.041,0.0
52988.0,STARLINK-4291,PAYLOAD,2023-02-26 07:21:01,15.08856778,0.0001067,53.2155,25.3629,102.8836,257.2275,0.00082237,0.0001283,0.0,0 STARLINK-4291,1 52988U 22076C   23057.30626820  .00012830  00000-0  82237-3 0  9992,2 52988  53.2155  25.3629 0001067 102.8836 257.2275 15.08856778 36132,6917.829,95.436,540.432,538.956,0.0
52988.0,STARLINK-4291,PAYLOAD,2023-02-27 04:01:02,15.08857835,0.0001734,53.2153,21.4979,88.5812,271.5378,0.00061158,9.463e-05,0.0,0 STARLINK-4291,1 52988U 22076C   23058.16738639  .00009463  00000-0  61158-3 0  9996,2 52988  53.2153  21.4979 0001734  88.5812 271.5378 15.08857835 36262,6917.826,95.436,540.89,538.491,0.0
52988.0,STARLINK-4291,PAYLOAD,2023-02-27 21:30:15,15.08871038,0.0001213,53.2164,18.2261,88.1509,271.9623,0.00066008,0.00010242,0.0,0 STARLINK-4291,1 52988U 22076C   23058.89601565  .00010242  00000-0  66008-3 0  9999,2 52988  53.2164  18.2261 0001213  88.1509 271.9623 15.08871038 35901,6917.786,95.436,540.49,538.811,0.0
52988.0,STARLINK-4291,PAYLOAD,2023-02-28 07:02:33,15.08897339,0.0001331,53.2158,16.442,99.202,260.9123,0.0014923,0.00023579,0.0,0 STARLINK-4291,1 52988U 22076C   23059.29344106  .00023579  00000-0  14923-2 0  9994,2 52988  53.2158  16.4420 0001331  99.2020 260.9123 15.08897339 36437,6917.705,95.434,540.491,538.649,0.0
52988.0,STARLINK-4291,PAYLOAD,2023-03-01 03:42:36,15.08796827,0.0001528,53.2183,12.579,78.61,281.5064,-0.00081751,-0.0001326,0.0,0 STARLINK-4291,1 52988U 22076C   23060.15459099 -.00013260  00000-0 -81751-3 0  9991,2 52988  53.2183  12.5790 0001528  78.6100 281.5064 15.08796827 36567,6918.012,95.44,540.934,538.82,0.0
52988.0,STARLINK-4291,PAYLOAD,2023-03-01 08:28:46,15.08804054,0.0001533,53.2169,11.6844,74.8325,285.2837,-0.00041541,-6.887e-05,0.0,0 STARLINK-4291,1 52988U 22076C   23060.35331657 -.00006887  00000-0 -41541-3 0  9992,2 52988  53.2169  11.6844 0001533  74.8325 285.2837 15.08804054 36598,6917.99,95.44,540.916,538.795,0.0
52988.0,STARLINK-4291,PAYLOAD,2023-03-01 21:11:52,15.08795283,0.0001606,53.2161,9.3052,80.2013,279.9161,0.0015158,0.00023889,0.0,0 STARLINK-4291,1 52988U 22076C   23060.88324877  .00023889  00000-0  15158-2 0  9999,2 52988  53.2161   9.3052 0001606  80.2013 279.9161 15.08795283 36202,6918.017,95.44,540.993,538.771,0.0
52988.0,STARLINK-4291,PAYLOAD,2023-03-02 03:33:25,15.08826211,0.0001542,53.2157,8.1168,72.8428,287.2733,0.0013175,0.00020734,0.0,0 STARLINK-4291,1 52988U 22076C   23061.14820686  .00020734  00000-0  13175-2 0  9991,2 52988  53.2157   8.1168 0001542  72.8428 287.2733 15.08826211 36717,6917.923,95.438,540.854,538.721,0.0
52988.0,STARLINK-4291,PAYLOAD,2023-03-02 06:44:11,15.08842533,0.0001557,53.216,7.5223,73.9084,286.208,0.0024273,0.00038557,0.0,0 STARLINK-4291,1 52988U 22076C   23061.28069009  .00038557  00000-0  24273-2 0  9993,2 52988  53.2160   7.5223 0001557  73.9084 286.2080 15.08842533 36733,6917.873,95.437,540.815,538.661,0.0
52988.0,STARLINK-4291,PAYLOAD,2023-03-03 04:59:34,15.08895995,0.0001885,53.2167,3.3586,75.2136,284.9065,0.0019208,0.00030461,0.0,0 STARLINK-4291,1 52988U 22076C   23062.20803304  .00030461  00000-0  19208-2 0  9998,2 52988  53.2167   3.3586 0001885  75.2136 284.9065 15.08895995 36876,6917.709,95.434,540.878,538.27,0.0
52988.0,STARLINK-4291,PAYLOAD,2023-03-04 01:39:33,15.0888151,0.0001212,53.2161,359.4939,119.3164,240.795,0.0019285,0.00030572,0.0,0 STARLINK-4291,1 52988U 22076C   23063.06914019  .00030572  00000-0  19285-2 0  9997,2 52988  53.2161 359.4939 0001212 119.3164 240.7950 15.08881510 37009,6917.754,95.435,540.457,538.78,0.0
52988.0,STARLINK-4291,PAYLOAD,2023-03-04 04:50:19,15.08887699,0.0001052,53.216,358.8995,113.6274,246.4829,0.0020745,0.00032925,0.0,0 STARLINK-4291,1 52988U 22076C   23063.20161668  .00032925  00000-0  20745-2 0  9994,2 52988  53.2160 358.8995 0001052 113.6274 246.4829 15.08887699 36555,6917.735,95.435,540.327,538.872,0.0
